{
  "type": "FeatureCollection",
  "features": [
    {
      "type": "Feature",
      "properties": {
        "norad_id": 30683,
        "name": "FENGYUN 1C DEB",
        "group": "fengyun-1c-debris",
        "lat": 15.421283009226872,
        "lon": 10.400134410776914,
        "alt_km": 991.7881796683587,
        "timestamp": "2025-12-27T02:10:16.467373+00:00",
        "meta_object_name": "FENGYUN 1C DEB",
        "meta_object_id": "1999-025AQR",
        "meta_epoch": "2025-12-25T13:06:58.710240",
        "meta_mean_motion": 14.00429844,
        "meta_eccentricity": 0.0138248,
        "meta_inclination": 99.4266,
        "meta_ra_of_asc_node": 11.4351,
        "meta_arg_of_pericenter": 189.5826,
        "meta_mean_anomaly": 326.7246,
        "meta_ephemeris_type": 0,
        "meta_classification_type": "U",
        "meta_norad_cat_id": 30683,
        "meta_element_set_no": 999,
        "meta_rev_at_epoch": 95730,
        "meta_bstar": 0.001076,
        "meta_mean_motion_dot": 1.686e-05,
        "meta_mean_motion_ddot": 0,
        "tle_line1": "1 30683U 99025AQR 25359.54651285  .00001686  00000+0  10760-2 0  9991",
        "tle_line2": "2 30683  99.4266  11.4351 0138248 189.5826 326.7246 14.00429844957308"
      },
      "geometry": {
        "type": "Point",
        "coordinates": [
          10.400134410776914,
          15.421283009226872
        ]
      }
    },
    {
      "type": "Feature",
      "properties": {
        "norad_id": 30684,
        "name": "FENGYUN 1C DEB",
        "group": "fengyun-1c-debris",
        "lat": -74.908991140849,
        "lon": -176.2615601747641,
        "alt_km": 860.1635866837587,
        "timestamp": "2025-12-27T02:10:16.467383+00:00",
        "meta_object_name": "FENGYUN 1C DEB",
        "meta_object_id": "1999-025AQS",
        "meta_epoch": "2025-12-25T13:46:12.707616",
        "meta_mean_motion": 13.66832566,
        "meta_eccentricity": 0.023623,
        "meta_inclination": 99.5309,
        "meta_ra_of_asc_node": 40.7807,
        "meta_arg_of_pericenter": 236.4133,
        "meta_mean_anomaly": 121.4261,
        "meta_ephemeris_type": 0,
        "meta_classification_type": "U",
        "meta_norad_cat_id": 30684,
        "meta_element_set_no": 999,
        "meta_rev_at_epoch": 93804,
        "meta_bstar": 0.0010195,
        "meta_mean_motion_dot": 9.85e-06,
        "meta_mean_motion_ddot": 0,
        "tle_line1": "1 30684U 99025AQS 25359.57375819  .00000985  00000+0  10195-2 0  9994",
        "tle_line2": "2 30684  99.5309  40.7807 0236230 236.4133 121.4261 13.66832566938049"
      },
      "geometry": {
        "type": "Point",
        "coordinates": [
          -176.2615601747641,
          -74.908991140849
        ]
      }
    },
    {
      "type": "Feature",
      "properties": {
        "norad_id": 30686,
        "name": "FENGYUN 1C DEB",
        "group": "fengyun-1c-debris",
        "lat": -36.371047287631086,
        "lon": -156.65202124346763,
        "alt_km": 692.7554540358233,
        "timestamp": "2025-12-27T02:10:16.467393+00:00",
        "meta_object_name": "FENGYUN 1C DEB",
        "meta_object_id": "1999-025AQU",
        "meta_epoch": "2025-12-25T00:31:59.014848",
        "meta_mean_motion": 14.73999147,
        "meta_eccentricity": 0.01440618,
        "meta_inclination": 99.0328,
        "meta_ra_of_asc_node": 194.3169,
        "meta_arg_of_pericenter": 82.5561,
        "meta_mean_anomaly": 73.5306,
        "meta_ephemeris_type": 0,
        "meta_classification_type": "U",
        "meta_norad_cat_id": 30686,
        "meta_element_set_no": 999,
        "meta_rev_at_epoch": 99782,
        "meta_bstar": 0.00068849051,
        "meta_mean_motion_dot": 5.279e-05,
        "meta_mean_motion_ddot": 0,
        "tle_line1": "1 30686U 99025AQU 25359.02221082  .00005279  00000+0  68849-3 0  9999",
        "tle_line2": "2 30686  99.0328 194.3169 0144061  82.5561  73.5306 14.73999147997825"
      },
      "geometry": {
        "type": "Point",
        "coordinates": [
          -156.65202124346763,
          -36.371047287631086
        ]
      }
    },
    {
      "type": "Feature",
      "properties": {
        "norad_id": 30688,
        "name": "FENGYUN 1C DEB",
        "group": "fengyun-1c-debris",
        "lat": -44.70679644508046,
        "lon": 83.2403704714033,
        "alt_km": 780.7418334042022,
        "timestamp": "2025-12-27T02:10:16.467404+00:00",
        "meta_object_name": "FENGYUN 1C DEB",
        "meta_object_id": "1999-025AQW",
        "meta_epoch": "2025-12-26T17:01:59.077056",
        "meta_mean_motion": 14.32813394,
        "meta_eccentricity": 0.0016011,
        "meta_inclination": 98.6998,
        "meta_ra_of_asc_node": 74.141,
        "meta_arg_of_pericenter": 271.9042,
        "meta_mean_anomaly": 239.8117,
        "meta_ephemeris_type": 0,
        "meta_classification_type": "U",
        "meta_norad_cat_id": 30688,
        "meta_element_set_no": 999,
        "meta_rev_at_epoch": 97460,
        "meta_bstar": 0.0016528,
        "meta_mean_motion_dot": 4.471e-05,
        "meta_mean_motion_ddot": 0,
        "tle_line1": "1 30688U 99025AQW 25360.70971154  .00004471  00000+0  16528-2 0  9999",
        "tle_line2": "2 30688  98.6998  74.1410 0016011 271.9042 239.8117 14.32813394974602"
      },
      "geometry": {
        "type": "Point",
        "coordinates": [
          83.2403704714033,
          -44.70679644508046
        ]
      }
    },
    {
      "type": "Feature",
      "properties": {
        "norad_id": 30689,
        "name": "FENGYUN 1C DEB",
        "group": "fengyun-1c-debris",
        "lat": -52.96653270498583,
        "lon": -1.3693306970046792,
        "alt_km": 895.7496492503851,
        "timestamp": "2025-12-27T02:10:16.467433+00:00",
        "meta_object_name": "FENGYUN 1C DEB",
        "meta_object_id": "1999-025AQX",
        "meta_epoch": "2025-12-26T17:03:04.417056",
        "meta_mean_motion": 14.11788395,
        "meta_eccentricity": 0.0111758,
        "meta_inclination": 98.7095,
        "meta_ra_of_asc_node": 346.5391,
        "meta_arg_of_pericenter": 63.9582,
        "meta_mean_anomaly": 113.1525,
        "meta_ephemeris_type": 0,
        "meta_classification_type": "U",
        "meta_norad_cat_id": 30689,
        "meta_element_set_no": 999,
        "meta_rev_at_epoch": 97087,
        "meta_bstar": 0.00046109,
        "meta_mean_motion_dot": 8.5e-06,
        "meta_mean_motion_ddot": 0,
        "tle_line1": "1 30689U 99025AQX 25360.71046779  .00000850  00000+0  46109-3 0  9993",
        "tle_line2": "2 30689  98.7095 346.5391 0111758  63.9582 113.1525 14.11788395970879"
      },
      "geometry": {
        "type": "Point",
        "coordinates": [
          -1.3693306970046792,
          -52.96653270498583
        ]
      }
    },
    {
      "type": "Feature",
      "properties": {
        "norad_id": 30690,
        "name": "FENGYUN 1C DEB",
        "group": "fengyun-1c-debris",
        "lat": -47.80784818923174,
        "lon": 101.30832785571522,
        "alt_km": 966.9055221936906,
        "timestamp": "2025-12-27T02:10:16.467454+00:00",
        "meta_object_name": "FENGYUN 1C DEB",
        "meta_object_id": "1999-025AQY",
        "meta_epoch": "2025-12-26T18:29:20.666112",
        "meta_mean_motion": 14.02390362,
        "meta_eccentricity": 0.0104947,
        "meta_inclination": 99.1594,
        "meta_ra_of_asc_node": 291.2388,
        "meta_arg_of_pericenter": 37.7194,
        "meta_mean_anomaly": 15.949,
        "meta_ephemeris_type": 0,
        "meta_classification_type": "U",
        "meta_norad_cat_id": 30690,
        "meta_element_set_no": 999,
        "meta_rev_at_epoch": 95904,
        "meta_bstar": 0.0018027,
        "meta_mean_motion_dot": 2.861e-05,
        "meta_mean_motion_ddot": 0,
        "tle_line1": "1 30690U 99025AQY 25360.77037808  .00002861  00000+0  18027-2 0  9995",
        "tle_line2": "2 30690  99.1594 291.2388 0104947  37.7194  15.9490 14.02390362959041"
      },
      "geometry": {
        "type": "Point",
        "coordinates": [
          101.30832785571522,
          -47.80784818923174
        ]
      }
    },
    {
      "type": "Feature",
      "properties": {
        "norad_id": 30691,
        "name": "FENGYUN 1C DEB",
        "group": "fengyun-1c-debris",
        "lat": -76.29154558406016,
        "lon": 50.74085038478764,
        "alt_km": 930.7183173594713,
        "timestamp": "2025-12-27T02:10:16.467466+00:00",
        "meta_object_name": "FENGYUN 1C DEB",
        "meta_object_id": "1999-025AQZ",
        "meta_epoch": "2025-12-25T13:10:12.042336",
        "meta_mean_motion": 13.89468034,
        "meta_eccentricity": 0.0139659,
        "meta_inclination": 98.7427,
        "meta_ra_of_asc_node": 10.181,
        "meta_arg_of_pericenter": 198.0062,
        "meta_mean_anomaly": 293.4196,
        "meta_ephemeris_type": 0,
        "meta_classification_type": "U",
        "meta_norad_cat_id": 30691,
        "meta_element_set_no": 999,
        "meta_rev_at_epoch": 95294,
        "meta_bstar": 0.001004,
        "meta_mean_motion_dot": 1.286e-05,
        "meta_mean_motion_ddot": 0,
        "tle_line1": "1 30691U 99025AQZ 25359.54875049  .00001286  00000+0  10040-2 0  9993",
        "tle_line2": "2 30691  98.7427  10.1810 0139659 198.0062 293.4196 13.89468034952947"
      },
      "geometry": {
        "type": "Point",
        "coordinates": [
          50.74085038478764,
          -76.29154558406016
        ]
      }
    }
  ]
}